{
  "type": "FeatureCollection",
  "features": [
    {
      "type": "Feature",
      "properties": {
        "norad_id": 30199,
        "name": "FENGYUN 1C DEB",
        "group": "fengyun-1c-debris",
        "lat": -32.65118154800035,
        "lon": -166.64927509119704,
        "alt_km": 749.95288638089,
        "timestamp": "2025-12-21T05:44:51.860469+00:00",
        "meta_object_name": "FENGYUN 1C DEB",
        "meta_object_id": "1999-025VG",
        "meta_epoch": "2025-12-20T15:58:53.207904",
        "meta_mean_motion": 14.38556419,
        "meta_eccentricity": 0.0077732,
        "meta_inclination": 98.384,
        "meta_ra_of_asc_node": 18.2131,
        "meta_arg_of_pericenter": 284.6249,
        "meta_mean_anomaly": 200.3328,
        "meta_ephemeris_type": 0,
        "meta_classification_type": "U",
        "meta_norad_cat_id": 30199,
        "meta_element_set_no": 999,
        "meta_rev_at_epoch": 98524,
        "meta_bstar": 0.00063018,
        "meta_mean_motion_dot": 1.952e-05,
        "meta_mean_motion_ddot": 0,
        "tle_line1": "1 30199U 99025VG  25354.66589361  .00001952  00000+0  63018-3 0  9997",
        "tle_line2": "2 30199  98.3840  18.2131 0077732 284.6249 200.3328 14.38556419985245"
      },
      "geometry": {
        "type": "Point",
        "coordinates": [
          -166.64927509119704,
          -32.65118154800035
        ]
      }
    },
    {
      "type": "Feature",
      "properties": {
        "norad_id": 30200,
        "name": "FENGYUN 1C DEB",
        "group": "fengyun-1c-debris",
        "lat": 48.82500220703459,
        "lon": 179.7082874807377,
        "alt_km": 716.9440976865135,
        "timestamp": "2025-12-21T05:44:51.860479+00:00",
        "meta_object_name": "FENGYUN 1C DEB",
        "meta_object_id": "1999-025VH",
        "meta_epoch": "2025-12-20T19:23:20.754240",
        "meta_mean_motion": 14.22281918,
        "meta_eccentricity": 0.01475622,
        "meta_inclination": 99.1126,
        "meta_ra_of_asc_node": 189.836,
        "meta_arg_of_pericenter": 76.3467,
        "meta_mean_anomaly": 285.4091,
        "meta_ephemeris_type": 0,
        "meta_classification_type": "U",
        "meta_norad_cat_id": 30200,
        "meta_element_set_no": 999,
        "meta_rev_at_epoch": 98097,
        "meta_bstar": 9.9935642e-05,
        "meta_mean_motion_dot": 2.01e-06,
        "meta_mean_motion_ddot": 0,
        "tle_line1": "1 30200U 99025VH  25354.80787910  .00000201  00000+0  99936-4 0  9991",
        "tle_line2": "2 30200  99.1126 189.8360 0147562  76.3467 285.4091 14.22281918980978"
      },
      "geometry": {
        "type": "Point",
        "coordinates": [
          179.7082874807377,
          48.82500220703459
        ]
      }
    },
    {
      "type": "Feature",
      "properties": {
        "norad_id": 30201,
        "name": "FENGYUN 1C DEB",
        "group": "fengyun-1c-debris",
        "lat": -17.90271030756651,
        "lon": 133.09198998971254,
        "alt_km": 808.0615907010351,
        "timestamp": "2025-12-21T05:44:51.860489+00:00",
        "meta_object_name": "FENGYUN 1C DEB",
        "meta_object_id": "1999-025VJ",
        "meta_epoch": "2025-12-20T21:23:41.393184",
        "meta_mean_motion": 14.22956627,
        "meta_eccentricity": 0.00287006,
        "meta_inclination": 99.4014,
        "meta_ra_of_asc_node": 129.6527,
        "meta_arg_of_pericenter": 289.0781,
        "meta_mean_anomaly": 70.7288,
        "meta_ephemeris_type": 0,
        "meta_classification_type": "U",
        "meta_norad_cat_id": 30201,
        "meta_element_set_no": 999,
        "meta_rev_at_epoch": 97943,
        "meta_bstar": 0.00032397942,
        "meta_mean_motion_dot": 6.82e-06,
        "meta_mean_motion_ddot": 0,
        "tle_line1": "1 30201U 99025VJ  25354.89145131  .00000682  00000+0  32398-3 0  9995",
        "tle_line2": "2 30201  99.4014 129.6527 0028700 289.0781  70.7288 14.22956627979437"
      },
      "geometry": {
        "type": "Point",
        "coordinates": [
          133.09198998971254,
          -17.90271030756651
        ]
      }
    },
    {
      "type": "Feature",
      "properties": {
        "norad_id": 30202,
        "name": "FENGYUN 1C DEB",
        "group": "fengyun-1c-debris",
        "lat": 37.490292769251425,
        "lon": -80.52412373447815,
        "alt_km": 723.7346039156755,
        "timestamp": "2025-12-21T05:44:51.860499+00:00",
        "meta_object_name": "FENGYUN 1C DEB",
        "meta_object_id": "1999-025VK",
        "meta_epoch": "2025-12-20T19:10:47.277120",
        "meta_mean_motion": 14.5249006,
        "meta_eccentricity": 0.00383053,
        "meta_inclination": 98.6405,
        "meta_ra_of_asc_node": 92.3246,
        "meta_arg_of_pericenter": 33.7995,
        "meta_mean_anomaly": 326.5631,
        "meta_ephemeris_type": 0,
        "meta_classification_type": "U",
        "meta_norad_cat_id": 30202,
        "meta_element_set_no": 999,
        "meta_rev_at_epoch": 98406,
        "meta_bstar": 0.0012479175,
        "meta_mean_motion_dot": 5.096e-05,
        "meta_mean_motion_ddot": 0,
        "tle_line1": "1 30202U 99025VK  25354.79915830  .00005096  00000+0  12479-2 0  9997",
        "tle_line2": "2 30202  98.6405  92.3246 0038305  33.7995 326.5631 14.52490060984066"
      },
      "geometry": {
        "type": "Point",
        "coordinates": [
          -80.52412373447815,
          37.490292769251425
        ]
      }
    },
    {
      "type": "Feature",
      "properties": {
        "norad_id": 30205,
        "name": "FENGYUN 1C DEB",
        "group": "fengyun-1c-debris",
        "lat": 25.401629990667058,
        "lon": 101.95380452610685,
        "alt_km": 992.158838627035,
        "timestamp": "2025-12-21T05:44:51.860509+00:00",
        "meta_object_name": "FENGYUN 1C DEB",
        "meta_object_id": "1999-025VN",
        "meta_epoch": "2025-12-20T07:26:02.461344",
        "meta_mean_motion": 13.88047657,
        "meta_eccentricity": 0.01212976,
        "meta_inclination": 98.9969,
        "meta_ra_of_asc_node": 105.3721,
        "meta_arg_of_pericenter": 159.3467,
        "meta_mean_anomaly": 264.1906,
        "meta_ephemeris_type": 0,
        "meta_classification_type": "U",
        "meta_norad_cat_id": 30205,
        "meta_element_set_no": 999,
        "meta_rev_at_epoch": 95743,
        "meta_bstar": 0.00023755981,
        "meta_mean_motion_dot": 2.58e-06,
        "meta_mean_motion_ddot": 0,
        "tle_line1": "1 30205U 99025VN  25354.30975071  .00000258  00000+0  23756-3 0  9996",
        "tle_line2": "2 30205  98.9969 105.3721 0121297 159.3467 264.1906 13.88047657957433"
      },
      "geometry": {
        "type": "Point",
        "coordinates": [
          101.95380452610685,
          25.401629990667058
        ]
      }
    },
    {
      "type": "Feature",
      "properties": {
        "norad_id": 30206,
        "name": "FENGYUN 1C DEB",
        "group": "fengyun-1c-debris",
        "lat": 22.98259921124639,
        "lon": -9.222099957436676,
        "alt_km": 627.0777266409614,
        "timestamp": "2025-12-21T05:44:51.860519+00:00",
        "meta_object_name": "FENGYUN 1C DEB",
        "meta_object_id": "1999-025VP",
        "meta_epoch": "2025-12-20T21:21:31.184928",
        "meta_mean_motion": 14.49184653,
        "meta_eccentricity": 0.01454198,
        "meta_inclination": 98.2315,
        "meta_ra_of_asc_node": 353.9566,
        "meta_arg_of_pericenter": 11.4668,
        "meta_mean_anomaly": 348.978,
        "meta_ephemeris_type": 0,
        "meta_classification_type": "U",
        "meta_norad_cat_id": 30206,
        "meta_element_set_no": 999,
        "meta_rev_at_epoch": 99519,
        "meta_bstar": 0.00035382447,
        "meta_mean_motion_dot": 1.491e-05,
        "meta_mean_motion_ddot": 0,
        "tle_line1": "1 30206U 99025VP  25354.88994427  .00001491  00000+0  35382-3 0  9994",
        "tle_line2": "2 30206  98.2315 353.9566 0145419  11.4668 348.9780 14.49184653995195"
      },
      "geometry": {
        "type": "Point",
        "coordinates": [
          -9.222099957436676,
          22.98259921124639
        ]
      }
    },
    {
      "type": "Feature",
      "properties": {
        "norad_id": 30207,
        "name": "FENGYUN 1C DEB",
        "group": "fengyun-1c-debris",
        "lat": 9.403695342665582,
        "lon": 103.71632672761909,
        "alt_km": 1047.7960860299045,
        "timestamp": "2025-12-21T05:44:51.860529+00:00",
        "meta_object_name": "FENGYUN 1C DEB",
        "meta_object_id": "1999-025VQ",
        "meta_epoch": "2025-12-20T19:52:06.979584",
        "meta_mean_motion": 13.79141169,
        "meta_eccentricity": 0.02607432,
        "meta_inclination": 98.5742,
        "meta_ra_of_asc_node": 104.775,
        "meta_arg_of_pericenter": 126.5426,
        "meta_mean_anomaly": 3.1979,
        "meta_ephemeris_type": 0,
        "meta_classification_type": "U",
        "meta_norad_cat_id": 30207,
        "meta_element_set_no": 999,
        "meta_rev_at_epoch": 95174,
        "meta_bstar": 0.00014427867,
        "meta_mean_motion_dot": 1.54e-06,
        "meta_mean_motion_ddot": 0,
        "tle_line1": "1 30207U 99025VQ  25354.82785856  .00000154  00000+0  14428-3 0  9996",
        "tle_line2": "2 30207  98.5742 104.7750 0260743 126.5426   3.1979 13.79141169951748"
      },
      "geometry": {
        "type": "Point",
        "coordinates": [
          103.71632672761909,
          9.403695342665582
        ]
      }
    }
  ]
}